SL-14 R/B               
1 21423U 91042B   26047.62201788  .00000401  00000+0  47776-4 0  9990
2 21423  82.4898 239.9420 0015948 314.1751  45.8152 14.81807816849955
ERS-1                   
1 21574U 91050A   26047.56586997  .00000338  00000+0  12286-3 0  9993
2 21574  98.7893  65.2690 0030870 264.7612  95.0052 14.39432102812695
ARIANE 40 R/B           
1 21610U 91050F   26047.59770983  .00000302  00000+0  10294-3 0  9995
2 21610  98.2059 100.6210 0004178 127.2432 232.9140 14.42877704815959
INTERCOSMOS 25          
1 21819U 91086A   26047.27456779  .00001235  00000+0  23751-3 0  9992
2 21819  82.6086 322.9489 1486936 163.0647 202.6174 12.11940229494093
SL-8 R/B                
1 21876U 92008B   26047.63310891  .00000066  00000+0  52476-4 0  9992
2 21876  82.9251 283.4443 0034265 191.3895 225.9498 13.75970061706525
SL-8 R/B                
1 21938U 92020B   26047.45384647  .00000095  00000+0  82257-4 0  9997
2 21938  82.9338 169.5233 0028787 359.8426  68.7107 13.75546622698212
USA 81                  
1 21949U 92023A   26047.35214004  .00000202  00000+0  67525-4 0  9991
2 21949  85.0117 143.7456 0002755  96.8141 263.3366 14.32360169 91731
COSMOS 2219             
1 22219U 92076A   26047.51170502  .00000194  00000+0  12669-3 0  9990
2 22219  71.0581  62.3415 0019972 235.6663 124.2570 14.14078178715386
SL-16 R/B               
1 22220U 92076B   26047.58656604 -.00000188  00000+0 -69903-4 0  9990
2 22220  70.9974 232.8261 0011197 134.8197 282.9498 14.16854994718843
COSMOS 2221             
1 22236U 92080A   26047.16895257  .00002029  00000+0  17791-3 0  9996
2 22236  82.5046 299.6937 0012793 265.7407  94.2353 14.96115985777578
SL-16 R/B               
1 22285U 92093B   26047.46779146  .00000296  00000+0  17595-3 0  9991
2 22285  71.0206  48.8162 0005446 316.8306  43.2389 14.15443556710153
COSMOS 2228             
1 22286U 92094A   26047.60043881  .00001952  00000+0  16649-3 0  9998
2 22286  82.5148 257.5062 0018477  17.4415 342.7438 14.97087704772909
