CCSDS_OMM_VERS = 2.0
CREATION_DATE  = 
ORIGINATOR     = 

OBJECT_NAME    = SL-14 R/B
OBJECT_ID      = 1991-042B
CENTER_NAME    = EARTH
REF_FRAME      = TEME
TIME_SYSTEM    = UTC
MEAN_ELEMENT_THEORY = SGP/SGP4

EPOCH          = 2026-02-16T14:55:42.344832
MEAN_MOTION    = 14.81807816
ECCENTRICITY   = .0015948
INCLINATION    = 82.4898
RA_OF_ASC_NODE = 239.9420
ARG_OF_PERICENTER = 314.1751
MEAN_ANOMALY   = 45.8152

EPHEMERIS_TYPE = 0
CLASSIFICATION_TYPE = U
NORAD_CAT_ID   = 21423
ELEMENT_SET_NO = 999
REV_AT_EPOCH   = 84995
BSTAR          = .47776264E-4
MEAN_MOTION_DOT = .401E-5
MEAN_MOTION_DDOT = 0

CCSDS_OMM_VERS = 2.0
CREATION_DATE  = 
ORIGINATOR     = 

OBJECT_NAME    = ERS-1
OBJECT_ID      = 1991-050A
CENTER_NAME    = EARTH
REF_FRAME      = TEME
TIME_SYSTEM    = UTC
MEAN_ELEMENT_THEORY = SGP/SGP4

EPOCH          = 2026-02-16T13:34:51.165408
MEAN_MOTION    = 14.39432102
ECCENTRICITY   = .00308708
INCLINATION    = 98.7893
RA_OF_ASC_NODE = 65.2690
ARG_OF_PERICENTER = 264.7612
MEAN_ANOMALY   = 95.0052

EPHEMERIS_TYPE = 0
CLASSIFICATION_TYPE = U
NORAD_CAT_ID   = 21574
ELEMENT_SET_NO = 999
REV_AT_EPOCH   = 81269
BSTAR          = .12286466E-3
MEAN_MOTION_DOT = .338E-5
MEAN_MOTION_DDOT = 0

CCSDS_OMM_VERS = 2.0
CREATION_DATE  = 
ORIGINATOR     = 

OBJECT_NAME    = ARIANE 40 R/B
OBJECT_ID      = 1991-050F
CENTER_NAME    = EARTH
REF_FRAME      = TEME
TIME_SYSTEM    = UTC
MEAN_ELEMENT_THEORY = SGP/SGP4

EPOCH          = 2026-02-16T14:20:42.129312
MEAN_MOTION    = 14.42877704
ECCENTRICITY   = .00041784
INCLINATION    = 98.2059
RA_OF_ASC_NODE = 100.6210
ARG_OF_PERICENTER = 127.2432
MEAN_ANOMALY   = 232.9140

EPHEMERIS_TYPE = 0
CLASSIFICATION_TYPE = U
NORAD_CAT_ID   = 21610
ELEMENT_SET_NO = 999
REV_AT_EPOCH   = 81595
BSTAR          = .10293781E-3
MEAN_MOTION_DOT = .302E-5
MEAN_MOTION_DDOT = 0

CCSDS_OMM_VERS = 2.0
CREATION_DATE  = 
ORIGINATOR     = 

OBJECT_NAME    = INTERCOSMOS 25
OBJECT_ID      = 1991-086A
CENTER_NAME    = EARTH
REF_FRAME      = TEME
TIME_SYSTEM    = UTC
MEAN_ELEMENT_THEORY = SGP/SGP4

EPOCH          = 2026-02-16T06:35:22.657056
MEAN_MOTION    = 12.11940229
ECCENTRICITY   = .1486936
INCLINATION    = 82.6086
RA_OF_ASC_NODE = 322.9489
ARG_OF_PERICENTER = 163.0647
MEAN_ANOMALY   = 202.6174

EPHEMERIS_TYPE = 0
CLASSIFICATION_TYPE = U
NORAD_CAT_ID   = 21819
ELEMENT_SET_NO = 999
REV_AT_EPOCH   = 49409
BSTAR          = .23751E-3
MEAN_MOTION_DOT = .1235E-4
MEAN_MOTION_DDOT = 0

CCSDS_OMM_VERS = 2.0
CREATION_DATE  = 
ORIGINATOR     = 

OBJECT_NAME    = SL-8 R/B
OBJECT_ID      = 1992-008B
CENTER_NAME    = EARTH
REF_FRAME      = TEME
TIME_SYSTEM    = UTC
MEAN_ELEMENT_THEORY = SGP/SGP4

EPOCH          = 2026-02-16T15:11:40.609824
MEAN_MOTION    = 13.75970061
ECCENTRICITY   = .00342659
INCLINATION    = 82.9251
RA_OF_ASC_NODE = 283.4443
ARG_OF_PERICENTER = 191.3895
MEAN_ANOMALY   = 225.9498

EPHEMERIS_TYPE = 0
CLASSIFICATION_TYPE = U
NORAD_CAT_ID   = 21876
ELEMENT_SET_NO = 999
REV_AT_EPOCH   = 70652
BSTAR          = .52475827E-4
MEAN_MOTION_DOT = .66E-6
MEAN_MOTION_DDOT = 0

CCSDS_OMM_VERS = 2.0
CREATION_DATE  = 
ORIGINATOR     = 

OBJECT_NAME    = SL-8 R/B
OBJECT_ID      = 1992-020B
CENTER_NAME    = EARTH
REF_FRAME      = TEME
TIME_SYSTEM    = UTC
MEAN_ELEMENT_THEORY = SGP/SGP4

EPOCH          = 2026-02-16T10:53:32.335008
MEAN_MOTION    = 13.75546622
ECCENTRICITY   = .00287879
INCLINATION    = 82.9338
RA_OF_ASC_NODE = 169.5233
ARG_OF_PERICENTER = 359.8426
MEAN_ANOMALY   = 68.7107

EPHEMERIS_TYPE = 0
CLASSIFICATION_TYPE = U
NORAD_CAT_ID   = 21938
ELEMENT_SET_NO = 999
REV_AT_EPOCH   = 69821
BSTAR          = .82256747E-4
MEAN_MOTION_DOT = .95E-6
MEAN_MOTION_DDOT = 0

CCSDS_OMM_VERS = 2.0
CREATION_DATE  = 
ORIGINATOR     = 

OBJECT_NAME    = USA 81
OBJECT_ID      = 1992-023A
CENTER_NAME    = EARTH
REF_FRAME      = TEME
TIME_SYSTEM    = UTC
MEAN_ELEMENT_THEORY = SGP/SGP4

EPOCH          = 2026-02-16T08:27:04.899456
MEAN_MOTION    = 14.32360169
ECCENTRICITY   = .00027557
INCLINATION    = 85.0117
RA_OF_ASC_NODE = 143.7456
ARG_OF_PERICENTER = 96.8141
MEAN_ANOMALY   = 263.3366

EPHEMERIS_TYPE = 0
CLASSIFICATION_TYPE = U
NORAD_CAT_ID   = 21949
ELEMENT_SET_NO = 999
REV_AT_EPOCH   = 9173
BSTAR          = .67524646E-4
MEAN_MOTION_DOT = .202E-5
MEAN_MOTION_DDOT = 0

CCSDS_OMM_VERS = 2.0
CREATION_DATE  = 
ORIGINATOR     = 

OBJECT_NAME    = COSMOS 2219
OBJECT_ID      = 1992-076A
CENTER_NAME    = EARTH
REF_FRAME      = TEME
TIME_SYSTEM    = UTC
MEAN_ELEMENT_THEORY = SGP/SGP4

EPOCH          = 2026-02-16T12:16:51.313728
MEAN_MOTION    = 14.14078178
ECCENTRICITY   = .00199721
INCLINATION    = 71.0581
RA_OF_ASC_NODE = 62.3415
ARG_OF_PERICENTER = 235.6663
MEAN_ANOMALY   = 124.2570

EPHEMERIS_TYPE = 0
CLASSIFICATION_TYPE = U
NORAD_CAT_ID   = 22219
ELEMENT_SET_NO = 999
REV_AT_EPOCH   = 71538
BSTAR          = .12669348E-3
MEAN_MOTION_DOT = .194E-5
MEAN_MOTION_DDOT = 0

CCSDS_OMM_VERS = 2.0
CREATION_DATE  = 
ORIGINATOR     = 

OBJECT_NAME    = SL-16 R/B
OBJECT_ID      = 1992-076B
CENTER_NAME    = EARTH
REF_FRAME      = TEME
TIME_SYSTEM    = UTC
MEAN_ELEMENT_THEORY = SGP/SGP4

EPOCH          = 2026-02-16T14:04:39.305856
MEAN_MOTION    = 14.16854994
ECCENTRICITY   = .00111974
INCLINATION    = 70.9974
RA_OF_ASC_NODE = 232.8261
ARG_OF_PERICENTER = 134.8197
MEAN_ANOMALY   = 282.9498

EPHEMERIS_TYPE = 0
CLASSIFICATION_TYPE = U
NORAD_CAT_ID   = 22220
ELEMENT_SET_NO = 999
REV_AT_EPOCH   = 71884
BSTAR          = -.69902706E-4
MEAN_MOTION_DOT = -.188E-5
MEAN_MOTION_DDOT = 0

CCSDS_OMM_VERS = 2.0
CREATION_DATE  = 
ORIGINATOR     = 

OBJECT_NAME    = COSMOS 2221
OBJECT_ID      = 1992-080A
CENTER_NAME    = EARTH
REF_FRAME      = TEME
TIME_SYSTEM    = UTC
MEAN_ELEMENT_THEORY = SGP/SGP4

EPOCH          = 2026-02-16T04:03:17.502048
MEAN_MOTION    = 14.96115985
ECCENTRICITY   = .00127936
INCLINATION    = 82.5046
RA_OF_ASC_NODE = 299.6937
ARG_OF_PERICENTER = 265.7407
MEAN_ANOMALY   = 94.2353

EPHEMERIS_TYPE = 0
CLASSIFICATION_TYPE = U
NORAD_CAT_ID   = 22236
ELEMENT_SET_NO = 999
REV_AT_EPOCH   = 77757
BSTAR          = .17791332E-3
MEAN_MOTION_DOT = .2029E-4
MEAN_MOTION_DDOT = 0

CCSDS_OMM_VERS = 2.0
CREATION_DATE  = 
ORIGINATOR     = 

OBJECT_NAME    = SL-16 R/B
OBJECT_ID      = 1992-093B
CENTER_NAME    = EARTH
REF_FRAME      = TEME
TIME_SYSTEM    = UTC
MEAN_ELEMENT_THEORY = SGP/SGP4

EPOCH          = 2026-02-16T11:13:37.182144
MEAN_MOTION    = 14.15443556
ECCENTRICITY   = .0005446
INCLINATION    = 71.0206
RA_OF_ASC_NODE = 48.8162
ARG_OF_PERICENTER = 316.8306
MEAN_ANOMALY   = 43.2389

EPHEMERIS_TYPE = 0
CLASSIFICATION_TYPE = U
NORAD_CAT_ID   = 22285
ELEMENT_SET_NO = 999
REV_AT_EPOCH   = 71015
BSTAR          = .1759536E-3
MEAN_MOTION_DOT = .296E-5
MEAN_MOTION_DDOT = 0

CCSDS_OMM_VERS = 2.0
CREATION_DATE  = 
ORIGINATOR     = 

OBJECT_NAME    = COSMOS 2228
OBJECT_ID      = 1992-094A
CENTER_NAME    = EARTH
REF_FRAME      = TEME
TIME_SYSTEM    = UTC
MEAN_ELEMENT_THEORY = SGP/SGP4

EPOCH          = 2026-02-16T14:24:37.913184
MEAN_MOTION    = 14.97087704
ECCENTRICITY   = .00184773
INCLINATION    = 82.5148
RA_OF_ASC_NODE = 257.5062
ARG_OF_PERICENTER = 17.4415
MEAN_ANOMALY   = 342.7438

EPHEMERIS_TYPE = 0
CLASSIFICATION_TYPE = U
NORAD_CAT_ID   = 22286
ELEMENT_SET_NO = 999
REV_AT_EPOCH   = 77290
BSTAR          = .16649095E-3
MEAN_MOTION_DOT = .1952E-4
MEAN_MOTION_DDOT = 0

